start=new Date('2022-09-13T00:00:00.000Z').valueOf();
sats=[{"PERIOD":"95.592","MEAN_MOTION_DOT":"0.00001239","ARG_OF_PERICENTER":"57.6493","MEAN_ANOMALY":"302.4642","EPOCH":"2022-09-12T19:51:16.045920","RA_OF_ASC_NODE":"190.2167","CLASSIFICATION_TYPE":"U","ECCENTRICITY":"0.00015120","MEAN_MOTION":"15.06396331","OBJECT_NAME":"STARLINK-2381","COUNTRY_CODE":"US","MEAN_MOTION_DDOT":"0.0000000000000","TIME_SYSTEM":"UTC","GP_ID":"212430949","MEAN_ELEMENT_THEORY":"SGP4","INCLINATION":"53.0549","TLE_LINE2":"2 47800  53.0549 190.2167 0001512  57.6493 302.4642 15.06396331 84871","REF_FRAME":"TEME","DECAY_DATE":null,"EPHEMERIS_TYPE":"0","OBJECT_ID":"2021-018P","ELEMENT_SET_NO":"999","SITE":"AFETR","PERIAPSIS":"546.178","CENTER_NAME":"EARTH","REV_AT_EPOCH":"8487","SEMIMAJOR_AXIS":"6925.360","APOAPSIS":"548.272","LAUNCH_DATE":"2021-03-11","OBJECT_TYPE":"PAYLOAD","BSTAR":"0.00010205000000","RCS_SIZE":"LARGE","TLE_LINE1":"1 47800U 21018P   22255.82726905  .00001239  00000-0  10205-3 0  9992","FILE":"3570509","NORAD_CAT_ID":"47800"},{"FILE":"3570509","NORAD_CAT_ID":"47801","TLE_LINE1":"1 47801U 21018Q   22255.86184133  .00000729  00000-0  67846-4 0  9995","RCS_SIZE":"LARGE","OBJECT_TYPE":"PAYLOAD","LAUNCH_DATE":"2021-03-11","BSTAR":"0.00006784600000","APOAPSIS":"548.176","SEMIMAJOR_AXIS":"6925.369","REV_AT_EPOCH":"8481","CENTER_NAME":"EARTH","PERIAPSIS":"546.291","SITE":"AFETR","ELEMENT_SET_NO":"999","OBJECT_ID":"2021-018Q","EPHEMERIS_TYPE":"0","TLE_LINE2":"2 47801  53.0553 195.1346 0001361  69.5964 290.5171 15.06393394 84811","REF_FRAME":"TEME","DECAY_DATE":null,"GP_ID":"212430226","INCLINATION":"53.0553","MEAN_ELEMENT_THEORY":"SGP4","MEAN_MOTION_DDOT":"0.0000000000000","TIME_SYSTEM":"UTC","OBJECT_NAME":"STARLINK-2382","COUNTRY_CODE":"US","CLASSIFICATION_TYPE":"U","MEAN_MOTION":"15.06393394","ECCENTRICITY":"0.00013610","EPOCH":"2022-09-12T20:41:03.090912","RA_OF_ASC_NODE":"195.1346","ARG_OF_PERICENTER":"69.5964","MEAN_ANOMALY":"290.5171","MEAN_MOTION_DOT":"0.00000729","PERIOD":"95.593"},{"SITE":"AFETR","ELEMENT_SET_NO":"999","PERIAPSIS":"546.217","REV_AT_EPOCH":"8445","CENTER_NAME":"EARTH","SEMIMAJOR_AXIS":"6925.346","REF_FRAME":"TEME","DECAY_DATE":null,"TLE_LINE2":"2 47802  53.0549 217.5223 0001435  85.7229 274.3924 15.06400984 84456","EPHEMERIS_TYPE":"0","OBJECT_ID":"2021-018R","RCS_SIZE":"LARGE","TLE_LINE1":"1 47802U 21018R   22255.31077946  .00000871  00000-0  77334-4 0  9990","FILE":"3570189","NORAD_CAT_ID":"47802","APOAPSIS":"548.204","BSTAR":"0.00007733400000","LAUNCH_DATE":"2021-03-11","OBJECT_TYPE":"PAYLOAD","RA_OF_ASC_NODE":"217.5223","EPOCH":"2022-09-12T07:27:31.345344","PERIOD":"95.592","MEAN_MOTION_DOT":"0.00000871","MEAN_ANOMALY":"274.3924","ARG_OF_PERICENTER":"85.7229","TIME_SYSTEM":"UTC","MEAN_MOTION_DDOT":"0.0000000000000","INCLINATION":"53.0549","MEAN_ELEMENT_THEORY":"SGP4","GP_ID":"212399126","ECCENTRICITY":"0.00014350","MEAN_MOTION":"15.06400984","CLASSIFICATION_TYPE":"U","COUNTRY_CODE":"US","OBJECT_NAME":"STARLINK-2383"},{"TLE_LINE1":"1 47803U 21018S   22255.83832508  .00002266  00000-0  17095-3 0  9998","RCS_SIZE":"LARGE","FILE":"3570509","NORAD_CAT_ID":"47803","APOAPSIS":"548.091","BSTAR":"0.00017095000000","LAUNCH_DATE":"2021-03-11","OBJECT_TYPE":"PAYLOAD","PERIAPSIS":"546.278","ELEMENT_SET_NO":"999","SITE":"AFETR","SEMIMAJOR_AXIS":"6925.320","CENTER_NAME":"EARTH","REV_AT_EPOCH":"8487","REF_FRAME":"TEME","DECAY_DATE":null,"TLE_LINE2":"2 47803  53.0531 190.1718 0001309  77.1349 282.9786 15.06409351 84875","OBJECT_ID":"2021-018S","EPHEMERIS_TYPE":"0","TIME_SYSTEM":"UTC","MEAN_MOTION_DDOT":"0.0000000000000","MEAN_ELEMENT_THEORY":"SGP4","INCLINATION":"53.0531","GP_ID":"212431220","MEAN_MOTION":"15.06409351","ECCENTRICITY":"0.00013090","CLASSIFICATION_TYPE":"U","COUNTRY_CODE":"US","OBJECT_NAME":"STARLINK-2384","RA_OF_ASC_NODE":"190.1718","EPOCH":"2022-09-12T20:07:11.286912","MEAN_MOTION_DOT":"0.00002266","PERIOD":"95.592","MEAN_ANOMALY":"282.9786","ARG_OF_PERICENTER":"77.1349"},{"TIME_SYSTEM":"UTC","MEAN_MOTION_DDOT":"0.0000000000000","INCLINATION":"53.0540","MEAN_ELEMENT_THEORY":"SGP4","GP_ID":"212404704","ECCENTRICITY":"0.00011870","MEAN_MOTION":"15.06405041","CLASSIFICATION_TYPE":"U","COUNTRY_CODE":"US","OBJECT_NAME":"STARLINK-2385","RA_OF_ASC_NODE":"190.1038","EPOCH":"2022-09-12T20:28:25.085568","PERIOD":"95.592","MEAN_MOTION_DOT":"0.00000884","MEAN_ANOMALY":"289.6994","ARG_OF_PERICENTER":"70.4123","RCS_SIZE":"LARGE","TLE_LINE1":"1 47804U 21018T   22255.85306812  .00000884  00000-0  78186-4 0  9998","FILE":"3570293","NORAD_CAT_ID":"47804","APOAPSIS":"548.020","BSTAR":"0.00007818600000","OBJECT_TYPE":"PAYLOAD","LAUNCH_DATE":"2021-03-11","ELEMENT_SET_NO":"999","SITE":"AFETR","PERIAPSIS":"546.376","CENTER_NAME":"EARTH","REV_AT_EPOCH":"8453","SEMIMAJOR_AXIS":"6925.333","DECAY_DATE":null,"REF_FRAME":"TEME","TLE_LINE2":"2 47804  53.0540 190.1038 0001187  70.4123 289.6994 15.06405041 84531","EPHEMERIS_TYPE":"0","OBJECT_ID":"2021-018T"},{"FILE":"3570189","NORAD_CAT_ID":"47805","TLE_LINE1":"1 47805U 21018U   22255.28916085  .00003177  00000-0  23211-3 0  9991","RCS_SIZE":"LARGE","BSTAR":"0.00023211000000","OBJECT_TYPE":"PAYLOAD","LAUNCH_DATE":"2021-03-11","APOAPSIS":"548.252","SEMIMAJOR_AXIS":"6925.361","CENTER_NAME":"EARTH","REV_AT_EPOCH":"8479","PERIAPSIS":"546.201","ELEMENT_SET_NO":"999","SITE":"AFETR","OBJECT_ID":"2021-018U","EPHEMERIS_TYPE":"0","REF_FRAME":"TEME","DECAY_DATE":null,"TLE_LINE2":"2 47805  53.0538 192.8749 0001481  76.9270 283.1884 15.06395803 84797","MEAN_ELEMENT_THEORY":"SGP4","INCLINATION":"53.0538","GP_ID":"212398876","TIME_SYSTEM":"UTC","MEAN_MOTION_DDOT":"0.0000000000000","COUNTRY_CODE":"US","OBJECT_NAME":"STARLINK-2386","MEAN_MOTION":"15.06395803","ECCENTRICITY":"0.00014810","CLASSIFICATION_TYPE":"U","RA_OF_ASC_NODE":"192.8749","EPOCH":"2022-09-12T06:56:23.497440","MEAN_ANOMALY":"283.1884","ARG_OF_PERICENTER":"76.9270","MEAN_MOTION_DOT":"0.00003177","PERIOD":"95.592"},{"NORAD_CAT_ID":"47806","FILE":"3570509","TLE_LINE1":"1 47806U 21018V   22255.89039378  .00000819  00000-0  73874-4 0  9991","RCS_SIZE":"LARGE","BSTAR":"0.00007387400000","OBJECT_TYPE":"PAYLOAD","LAUNCH_DATE":"2021-03-11","APOAPSIS":"548.365","SEMIMAJOR_AXIS":"6925.349","CENTER_NAME":"EARTH","REV_AT_EPOCH":"8473","PERIAPSIS":"546.063","ELEMENT_SET_NO":"999","SITE":"AFETR","EPHEMERIS_TYPE":"0","OBJECT_ID":"2021-018V","REF_FRAME":"TEME","DECAY_DATE":null,"TLE_LINE2":"2 47806  53.0546 204.9377 0001662  64.4202 295.6959 15.06399779 84738","INCLINATION":"53.0546","MEAN_ELEMENT_THEORY":"SGP4","GP_ID":"212429976","TIME_SYSTEM":"UTC","MEAN_MOTION_DDOT":"0.0000000000000","COUNTRY_CODE":"US","OBJECT_NAME":"STARLINK-2387","MEAN_MOTION":"15.06399779","ECCENTRICITY":"0.00016620","CLASSIFICATION_TYPE":"U","RA_OF_ASC_NODE":"204.9377","EPOCH":"2022-09-12T21:22:10.022592","MEAN_ANOMALY":"295.6959","ARG_OF_PERICENTER":"64.4202","MEAN_MOTION_DOT":"0.00000819","PERIOD":"95.592"},{"RA_OF_ASC_NODE":"180.2802","EPOCH":"2022-09-12T19:31:21.504576","MEAN_MOTION_DOT":"-0.00002967","PERIOD":"95.592","MEAN_ANOMALY":"271.7000","ARG_OF_PERICENTER":"88.4143","TIME_SYSTEM":"UTC","MEAN_MOTION_DDOT":"0.0000000000000","INCLINATION":"53.0563","MEAN_ELEMENT_THEORY":"SGP4","GP_ID":"212430720","MEAN_MOTION":"15.06408010","ECCENTRICITY":"0.00013450","CLASSIFICATION_TYPE":"U","COUNTRY_CODE":"US","OBJECT_NAME":"STARLINK-2388","PERIAPSIS":"546.258","ELEMENT_SET_NO":"999","SITE":"AFETR","SEMIMAJOR_AXIS":"6925.324","REV_AT_EPOCH":"8500","CENTER_NAME":"EARTH","REF_FRAME":"TEME","DECAY_DATE":null,"TLE_LINE2":"2 47807  53.0563 180.2802 0001345  88.4143 271.7000 15.06408010 85007","OBJECT_ID":"2021-018W","EPHEMERIS_TYPE":"0","TLE_LINE1":"1 47807U 21018W   22255.81344334 -.00002967  00000-0 -18031-3 0  9996","RCS_SIZE":"LARGE","NORAD_CAT_ID":"47807","FILE":"3570509","APOAPSIS":"548.120","BSTAR":"-0.00018031000000","LAUNCH_DATE":"2021-03-11","OBJECT_TYPE":"PAYLOAD"},{"CLASSIFICATION_TYPE":"U","MEAN_MOTION":"15.06403849","ECCENTRICITY":"0.00017220","OBJECT_NAME":"STARLINK-2389","COUNTRY_CODE":"US","MEAN_MOTION_DDOT":"0.0000000000000","TIME_SYSTEM":"UTC","GP_ID":"212430950","INCLINATION":"53.0556","MEAN_ELEMENT_THEORY":"SGP4","MEAN_MOTION_DOT":"0.00001734","PERIOD":"95.592","ARG_OF_PERICENTER":"68.1382","MEAN_ANOMALY":"291.9790","EPOCH":"2022-09-12T21:48:41.933952","RA_OF_ASC_NODE":"204.8510","APOAPSIS":"548.394","LAUNCH_DATE":"2021-03-11","OBJECT_TYPE":"PAYLOAD","BSTAR":"0.00013525000000","TLE_LINE1":"1 47808U 21018X   22255.90881868  .00001734  00000-0  13525-3 0  9997","RCS_SIZE":"LARGE","FILE":"3570509","NORAD_CAT_ID":"47808","TLE_LINE2":"2 47808  53.0556 204.8510 0001722  68.1382 291.9790 15.06403849 84732","DECAY_DATE":null,"REF_FRAME":"TEME","EPHEMERIS_TYPE":"0","OBJECT_ID":"2021-018X","PERIAPSIS":"546.009","SITE":"AFETR","ELEMENT_SET_NO":"999","SEMIMAJOR_AXIS":"6925.337","REV_AT_EPOCH":"8473","CENTER_NAME":"EARTH"},{"TLE_LINE1":"1 47809U 21018Y   22255.38217116  .00000899  00000-0  79273-4 0  9993","RCS_SIZE":"LARGE","FILE":"3570189","NORAD_CAT_ID":"47809","APOAPSIS":"548.390","BSTAR":"0.00007927300000","OBJECT_TYPE":"PAYLOAD","LAUNCH_DATE":"2021-03-11","PERIAPSIS":"546.034","SITE":"AFETR","ELEMENT_SET_NO":"999","SEMIMAJOR_AXIS":"6925.347","CENTER_NAME":"EARTH","REV_AT_EPOCH":"8458","REF_FRAME":"TEME","DECAY_DATE":null,"TLE_LINE2":"2 47809  53.0531 212.2063 0001701  65.6591 294.4575 15.06400348 84586","OBJECT_ID":"2021-018Y","EPHEMERIS_TYPE":"0","TIME_SYSTEM":"UTC","MEAN_MOTION_DDOT":"0.0000000000000","INCLINATION":"53.0531","MEAN_ELEMENT_THEORY":"SGP4","GP_ID":"212399377","MEAN_MOTION":"15.06400348","ECCENTRICITY":"0.00017010","CLASSIFICATION_TYPE":"U","COUNTRY_CODE":"US","OBJECT_NAME":"STARLINK-2390","RA_OF_ASC_NODE":"212.2063","EPOCH":"2022-09-12T09:10:19.588224","MEAN_MOTION_DOT":"0.00000899","PERIOD":"95.592","MEAN_ANOMALY":"294.4575","ARG_OF_PERICENTER":"65.6591"}];
